NORAD_CAT_ID,OBJECT_NAME,OBJECT_TYPE,EPOCH,MEAN_MOTION,ECCENTRICITY,INCLINATION,RA_OF_ASC_NODE,ARG_OF_PERICENTER,MEAN_ANOMALY,BSTAR,MEAN_MOTION_DOT,MEAN_MOTION_DDOT,TLE_LINE0,TLE_LINE1,TLE_LINE2,SEMIMAJOR_AXIS,PERIOD,APOGEE,PERIGEE,DECAYED
54205.0,STARLINK-5249,PAYLOAD,2022-12-17 02:22:36,15.73229423,0.000273,53.2136,256.1555,20.185,339.9278,6.2392e-05,8.155e-05,0.0,0 STARLINK-5249,1 54205U 22141BA  22351.09903360  .00008155  00000-0  62392-4 0  9994,2 54205  53.2136 256.1555 0002730  20.1850 339.9278 15.73229423  8147,6727.811,91.531,351.51300000000015,347.84,0.0
54205.0,STARLINK-5249,PAYLOAD,2022-12-17 17:37:24,15.73215047,0.0002597,53.2133,253.0107,25.3899,334.7248,-1.0732e-05,-2.129e-05,0.0,0 STARLINK-5249,1 54205U 22141BA  22351.73431285 -.00002129  00000-0 -10732-4 0  9995,2 54205  53.2133 253.0107 0002597  25.3899 334.7248 15.73215047  8242,6727.852,91.532,351.464,347.97,0.0
54205.0,STARLINK-5249,PAYLOAD,2022-12-18 02:46:19,15.73142113,0.0002388,53.2139,251.1228,28.1053,332.0096,-0.00016057,-0.00023042,0.0,0 STARLINK-5249,1 54205U 22141BA  22352.11550734 -.00023042  00000-0 -16057-3 0  9991,2 54205  53.2139 251.1228 0002388  28.1053 332.0096 15.73142113  8304,6728.06,91.537,351.532,348.319,0.0
54205.0,STARLINK-5249,PAYLOAD,2022-12-18 10:23:44,15.73159824,0.0002353,53.2134,249.5514,20.1166,339.9946,-5.8887e-05,-8.864e-05,0.0,0 STARLINK-5249,1 54205U 22141BA  22352.43315386 -.00008864  00000-0 -58887-4 0  9991,2 54205  53.2134 249.5514 0002353  20.1166 339.9946 15.73159824  8359,6728.01,91.536,351.458,348.292,0.0
54205.0,STARLINK-5249,PAYLOAD,2022-12-19 01:38:32,15.73214357,0.000164,53.2134,246.4077,33.5985,326.5138,8.7131e-05,0.00011632,0.0,0 STARLINK-5249,1 54205U 22141BA  22353.06842634  .00011632  00000-0  87131-4 0  9991,2 54205  53.2134 246.4077 0001640  33.5985 326.5138 15.73214357  8453,6727.854,91.532,350.8230000000001,348.616,0.0
54205.0,STARLINK-5249,PAYLOAD,2022-12-20 02:02:13,15.73183323,0.0002078,53.2143,241.3787,41.1486,318.969,1.0079e-05,7.93e-06,0.0,0 STARLINK-5249,1 54205U 22141BA  22354.08488357  .00000793  00000-0  10079-4 0  9995,2 54205  53.2143 241.3787 0002078  41.1486 318.9690 15.73183323  8616,6727.943,91.534,351.206,348.41,0.0
54205.0,STARLINK-5249,PAYLOAD,2022-12-20 09:39:37,15.73198105,0.0001457,53.2144,239.8063,41.8998,318.2133,1.9349e-05,2.096e-05,0.0,0 STARLINK-5249,1 54205U 22141BA  22354.40251809  .00002096  00000-0  19349-4 0  9998,2 54205  53.2144 239.8063 0001457  41.8998 318.2133 15.73198105  8665,6727.901,91.533,350.746,348.785,0.0
54205.0,STARLINK-5249,PAYLOAD,2022-12-20 17:16:58,15.73269147,0.0001556,53.2143,238.2349,42.0288,318.0851,9.8619e-05,0.00013283,0.0,0 STARLINK-5249,1 54205U 22141BA  22354.72012242  .00013283  00000-0  98619-4 0  9996,2 54205  53.2143 238.2349 0001556  42.0288 318.0851 15.73269147  8715,6727.698,91.529,350.61,348.516,0.0
54205.0,STARLINK-5249,PAYLOAD,2022-12-21 00:54:24,15.73222752,0.0001207,53.2136,236.6643,62.363,297.7513,2.2055e-05,2.479e-05,0.0,0 STARLINK-5249,1 54205U 22141BA  22355.03778351  .00002479  00000-0  22055-4 0  9997,2 54205  53.2136 236.6643 0001207  62.3630 297.7513 15.73222752  8769,6727.83,91.532,350.50699999999995,348.8830000000001,0.0
54205.0,STARLINK-5249,PAYLOAD,2022-12-21 03:57:22,15.73219546,0.0001469,53.2141,236.0353,56.932,303.1841,6.547399999999999e-05,8.586e-05,0.0,0 STARLINK-5249,1 54205U 22141BA  22355.16484162  .00008586  00000-0  65474-4 0  9992,2 54205  53.2141 236.0353 0001469  56.9320 303.1841 15.73219546  8552,6727.839,91.532,350.6930000000001,348.716,0.0
54205.0,STARLINK-5249,PAYLOAD,2022-12-22 01:18:06,15.73226392,0.0001078,53.2143,231.6336,64.9639,295.1493,0.00011106,0.00015012,0.0,0 STARLINK-5249,1 54205U 22141BA  22356.05423688  .00015012  00000-0  11106-3 0  9991,2 54205  53.2143 231.6336 0001078  64.9639 295.1493 15.73226392  8925,6727.82,91.532,350.41,348.96,0.0
54205.0,STARLINK-5249,PAYLOAD,2022-12-22 08:55:29,15.7321794,7.2e-05,53.2137,230.0611,96.8747,263.2355,6.926399999999999e-05,9.119e-05,0.0,0 STARLINK-5249,1 54205U 22141BA  22356.37187498  .00009119  00000-0  69264-4 0  9992,2 54205  53.2137 230.0611 0000720  96.8747 263.2355 15.73217940  8971,6727.844,91.532,350.1930000000001,349.225,0.0
54205.0,STARLINK-5249,PAYLOAD,2022-12-22 16:32:54,15.73214815,0.0001151,53.2145,228.4876,94.8428,265.2724,4.794600000000001e-05,6.118e-05,0.0,0 STARLINK-5249,1 54205U 22141BA  22356.68951496  .00006118  00000-0  47946-4 0  9992,2 54205  53.2145 228.4876 0001151  94.8428 265.2724 15.73214815  9024,6727.853,91.532,350.492,348.944,0.0
54205.0,STARLINK-5249,PAYLOAD,2022-12-22 21:07:19,15.73235679,0.0001017,53.2133,227.5474,96.0491,264.0645,8.3686e-05,0.00011158,0.0,0 STARLINK-5249,1 54205U 22141BA  22356.88009089  .00011158  00000-0  83686-4 0  9997,2 54205  53.2133 227.5474 0001017  96.0491 264.0645 15.73235679  8827,6727.793000000002,91.531,350.343,348.974,0.0
54205.0,STARLINK-5249,PAYLOAD,2022-12-23 00:10:17,15.73245671,9.86e-05,53.2134,226.9186,92.139,267.9743,0.00010434,0.00014076,0.0,0 STARLINK-5249,1 54205U 22141BA  22357.00714239  .00014076  00000-0  10434-3 0  9994,2 54205  53.2134 226.9186 0000986  92.1390 267.9743 15.73245671  9072,6727.765,91.531,350.293,348.967,0.0
54205.0,STARLINK-5249,PAYLOAD,2022-12-24 02:05:25,15.73232412,0.0001249,53.2136,221.5728,87.8936,272.2227,2.6511000000000003e-06,-2.48e-06,0.0,0 STARLINK-5249,1 54205U 22141BA  22358.08709793 -.00000248  00000-0  26511-5 0  9994,2 54205  53.2136 221.5728 0001249  87.8936 272.2227 15.73232412  9241,6727.803000000001,91.531,350.5080000000001,348.827,0.0
54205.0,STARLINK-5249,PAYLOAD,2022-12-24 08:11:20,15.7323008,0.0001161,53.2137,220.3148,99.5352,260.5799,-2.6869e-06,-9.97e-06,0.0,0 STARLINK-5249,1 54205U 22141BA  22358.34120615 -.00000997  00000-0 -26869-5 0  9991,2 54205  53.2137 220.3148 0001161  99.5352 260.5799 15.73230080  9052,6727.809,91.531,350.456,348.89300000000014,0.0
54205.0,STARLINK-5249,PAYLOAD,2022-12-24 18:51:42,15.73215199,6.86e-05,53.213,218.1145,102.43,257.6797,-1.8994e-05,-3.285e-05,0.0,0 STARLINK-5249,1 54205U 22141BA  22358.78590327 -.00003285  00000-0 -18994-4 0  9992,2 54205  53.2130 218.1145 0000686 102.4300 257.6797 15.73215199  9357,6727.852,91.532,350.17800000000005,349.255,0.0
54205.0,STARLINK-5249,PAYLOAD,2022-12-24 21:54:39,15.73213046,0.0001179,53.2136,217.486,93.3531,266.7624,-1.9324e-05,-3.332e-05,0.0,0 STARLINK-5249,1 54205U 22141BA  22358.91296059 -.00003332  00000-0 -19324-4 0  9993,2 54205  53.2136 217.4860 0001179  93.3531 266.7624 15.73213046  9147,6727.858,91.532,350.516,348.93,0.0
54205.0,STARLINK-5249,PAYLOAD,2022-12-25 00:57:37,15.7319354,0.0001028,53.2136,216.8565,92.4847,267.629,-6.382e-05,-9.563e-05,0.0,0 STARLINK-5249,1 54205U 22141BA  22359.04002114 -.00009563  00000-0 -63820-4 0  9997,2 54205  53.2136 216.8565 0001028  92.4847 267.6290 15.73193540  9397,6727.9140000000025,91.534,350.47,349.087,0.0
54205.0,STARLINK-5249,PAYLOAD,2022-12-25 20:46:53,15.73189366,0.0001138,53.214,212.7705,86.5758,273.5392,-1.3089e-06,-8.03e-06,0.0,0 STARLINK-5249,1 54205U 22141BA  22359.86589385 -.00000803  00000-0 -13089-5 0  9998,2 54205  53.2140 212.7705 0001138  86.5758 273.5392 15.73189366  9299,6727.925,91.534,350.556,349.025,0.0
54205.0,STARLINK-5249,PAYLOAD,2022-12-25 23:49:50,15.731903699999998,0.0001052,53.2132,212.1398,109.0175,251.0959,5.3786000000000005e-06,1.35e-06,0.0,0 STARLINK-5249,1 54205U 22141BA  22359.99295043  .00000135  00000-0  53786-5 0  9991,2 54205  53.2132 212.1398 0001052 109.0175 251.0959 15.73190370  9546,6727.9230000000025,91.534,350.495,349.08,0.0
54205.0,STARLINK-5249,PAYLOAD,2022-12-26 07:27:20,15.73079118,0.0003844,53.2139,210.5691,71.4463,288.6974,-0.00021897,-0.00031096,0.0,0 STARLINK-5249,1 54205U 22141BA  22360.31065306 -.00031096  00000-0 -21897-3 0  9994,2 54205  53.2139 210.5691 0003844  71.4463 288.6974 15.73079118  9598,6728.24,91.54,352.691,347.519,0.0
54205.0,STARLINK-5249,PAYLOAD,2022-12-26 16:36:23,15.72612758,0.0002246,53.2125,208.68400000000003,286.9499,73.1275,-0.0015255,-0.00204438,0.0,0 STARLINK-5249,1 54205U 22141BA  22360.69193386 -.00204438  00000-0 -15255-2 0  9997,2 54205  53.2125 208.6840 0002246 286.9499  73.1275 15.72612758  9654,6729.57,91.567,352.946,349.923,0.0
54205.0,STARLINK-5249,PAYLOAD,2022-12-26 21:10:49,15.72915356,0.0003563999999999,53.213,207.7403,300.2673,59.7994,-0.00039541,-0.00055106,0.0,0 STARLINK-5249,1 54205U 22141BA  22360.88251829 -.00055106  00000-0 -39541-3 0  9996,2 54205  53.2130 207.7403 0003564 300.2673  59.7994 15.72915356  9684,6728.706999999999,91.55,352.97,348.1740000000001,0.0
54205.0,STARLINK-5249,PAYLOAD,2022-12-27 13:59:12,15.70771365,9.46e-05,53.213,204.2907,108.6298,251.4824,-0.0039682,-0.00475421,0.0,0 STARLINK-5249,1 54205U 22141BA  22361.58278264 -.00475421  00000-0 -39682-2 0  9997,2 54205  53.2130 204.2907 0000946 108.6298 251.4824 15.70771365  9792,6734.828,91.675,357.33,356.056,0.0
54205.0,STARLINK-5249,PAYLOAD,2022-12-28 06:00:00,15.68046105,0.0001284,53.2169,201.0044,93.8713,76.9337,-0.010743,-0.01087553,0.0,0 STARLINK-5249,1 54205U 22141BA  22362.25001157 -.01087553  00000-0 -10743-1 0  9999,2 54205  53.2169 201.0044 0001284  93.8713  76.9337 15.68046105  9898,6742.629,91.834,365.36,363.629,0.0
54205.0,STARLINK-5249,PAYLOAD,2022-12-28 14:00:01,15.6720096,0.0001213,53.2168,199.3678,88.5801,164.5045,-0.010633,-0.01044444,0.0,0 STARLINK-5249,1 54205U 22141BA  22362.58334491 -.01044444  00000-0 -10633-1 0  9995,2 54205  53.2168 199.3678 0001213  88.5801 164.5045 15.67200960  1308,6745.053000000001,91.884,367.736,366.1,0.0
54205.0,STARLINK-5249,PAYLOAD,2022-12-28 22:00:00,15.66416334,0.0001169,53.217,197.7358,117.6266,216.7301,-0.011455,-0.01084951,0.0,0 STARLINK-5249,1 54205U 22141BA  22362.91667824 -.01084951  00000-0 -11455-1 0  9991,2 54205  53.2170 197.7358 0001169 117.6266 216.7301 15.66416334 10002,6747.305,91.93,369.959,368.382,0.0
